[{"OBJECT_NAME":"STARLINK-30207","OBJECT_ID":"2023-102D","EPOCH":"2025-09-28T17:03:24.835104","MEAN_MOTION":15.02547051,"ECCENTRICITY":0.00011797,"INCLINATION":43.0033,"RA_OF_ASC_NODE":35.8337,"ARG_OF_PERICENTER":249.6835,"MEAN_ANOMALY":110.3881,"EPHEMERIS_TYPE":0,"CLASSIFICATION_TYPE":"U","NORAD_CAT_ID":57407,"ELEMENT_SET_NO":999,"REV_AT_EPOCH":12203,"BSTAR":0.00026992392,"MEAN_MOTION_DOT":3.445e-5,"MEAN_MOTION_DDOT":0},{"OBJECT_NAME":"STARLINK-30205","OBJECT_ID":"2023-102E","EPOCH":"2025-09-28T20:48:04.667616","MEAN_MOTION":15.02525824,"ECCENTRICITY":0.0004286,"INCLINATION":43.0107,"RA_OF_ASC_NODE":48.2046,"ARG_OF_PERICENTER":271.9599,"MEAN_ANOMALY":88.0753,"EPHEMERIS_TYPE":0,"CLASSIFICATION_TYPE":"U","NORAD_CAT_ID":57408,"ELEMENT_SET_NO":999,"REV_AT_EPOCH":12189,"BSTAR":2.854423e-5,"MEAN_MOTION_DOT":1.81e-6,"MEAN_MOTION_DDOT":0},{"OBJECT_NAME":"STARLINK-30222","OBJECT_ID":"2023-102F","EPOCH":"2025-09-28T20:33:41.093568","MEAN_MOTION":15.02527453,"ECCENTRICITY":0.00014958,"INCLINATION":43.0031,"RA_OF_ASC_NODE":48.1325,"ARG_OF_PERICENTER":279.9389,"MEAN_ANOMALY":80.1285,"EPHEMERIS_TYPE":0,"CLASSIFICATION_TYPE":"U","NORAD_CAT_ID":57409,"ELEMENT_SET_NO":999,"REV_AT_EPOCH":12189,"BSTAR":0.00031911856,"MEAN_MOTION_DOT":4.109e-5,"MEAN_MOTION_DDOT":0},{"OBJECT_NAME":"STARLINK-30172","OBJECT_ID":"2023-102G","EPOCH":"2025-09-28T20:43:15.252672","MEAN_MOTION":15.02546334,"ECCENTRICITY":0.00016017,"INCLINATION":43.0026,"RA_OF_ASC_NODE":48.1715,"ARG_OF_PERICENTER":304.0349,"MEAN_ANOMALY":56.0341,"EPHEMERIS_TYPE":0,"CLASSIFICATION_TYPE":"U","NORAD_CAT_ID":57410,"ELEMENT_SET_NO":999,"REV_AT_EPOCH":12189,"BSTAR":8.0679061e-5,"MEAN_MOTION_DOT":8.87e-6,"MEAN_MOTION_DDOT":0},{"OBJECT_NAME":"STARLINK-30214","OBJECT_ID":"2023-102H","EPOCH":"2025-09-28T20:00:06.791616","MEAN_MOTION":15.02537321,"ECCENTRICITY":0.00018115,"INCLINATION":43.0043,"RA_OF_ASC_NODE":47.9656,"ARG_OF_PERICENTER":294.3975,"MEAN_ANOMALY":65.6678,"EPHEMERIS_TYPE":0,"CLASSIFICATION_TYPE":"U","NORAD_CAT_ID":57411,"ELEMENT_SET_NO":999,"REV_AT_EPOCH":12184,"BSTAR":0.00012179645,"MEAN_MOTION_DOT":1.442e-5,"MEAN_MOTION_DDOT":0},{"OBJECT_NAME":"STARLINK-30182","OBJECT_ID":"2023-102J","EPOCH":"2025-09-28T11:04:06.044448","MEAN_MOTION":15.02538886,"ECCENTRICITY":0.00019871,"INCLINATION":43.0048,"RA_OF_ASC_NODE":50.3217,"ARG_OF_PERICENTER":276.668,"MEAN_ANOMALY":83.3936,"EPHEMERIS_TYPE":0,"CLASSIFICATION_TYPE":"U","NORAD_CAT_ID":57412,"ELEMENT_SET_NO":999,"REV_AT_EPOCH":12183,"BSTAR":9.8126101e-5,"MEAN_MOTION_DOT":1.122e-5,"MEAN_MOTION_DDOT":0},{"OBJECT_NAME":"STARLINK-30191","OBJECT_ID":"2023-102K","EPOCH":"2025-09-29T06:56:41.339040","MEAN_MOTION":15.27564511,"ECCENTRICITY":0.00021985,"INCLINATION":43.01,"RA_OF_ASC_NODE":18.1498,"ARG_OF_PERICENTER":277.5887,"MEAN_ANOMALY":82.4715,"EPHEMERIS_TYPE":0,"CLASSIFICATION_TYPE":"U","NORAD_CAT_ID":57413,"ELEMENT_SET_NO":999,"REV_AT_EPOCH":12228,"BSTAR":0.00026639751,"MEAN_MOTION_DOT":7.072e-5,"MEAN_MOTION_DDOT":0},{"OBJECT_NAME":"STARLINK-30193","OBJECT_ID":"2023-102L","EPOCH":"2025-09-28T09:13:59.536704","MEAN_MOTION":15.02538432,"ECCENTRICITY":9.268e-5,"INCLINATION":43.0005,"RA_OF_ASC_NODE":50.5878,"ARG_OF_PERICENTER":204.4632,"MEAN_ANOMALY":155.6166,"EPHEMERIS_TYPE":0,"CLASSIFICATION_TYPE":"U","NORAD_CAT_ID":57414,"ELEMENT_SET_NO":999,"REV_AT_EPOCH":12182,"BSTAR":0.00027030179,"MEAN_MOTION_DOT":3.45e-5,"MEAN_MOTION_DDOT":0},{"OBJECT_NAME":"STARLINK-30208","OBJECT_ID":"2023-102M","EPOCH":"2025-09-28T18:43:35.706432","MEAN_MOTION":15.02521693,"ECCENTRICITY":0.00011312,"INCLINATION":43.0007,"RA_OF_ASC_NODE":48.4106,"ARG_OF_PERICENTER":203.1051,"MEAN_ANOMALY":156.974,"EPHEMERIS_TYPE":0,"CLASSIFICATION_TYPE":"U","NORAD_CAT_ID":57415,"ELEMENT_SET_NO":999,"REV_AT_EPOCH":12183,"BSTAR":-9.0919481e-5,"MEAN_MOTION_DOT":-1.431e-5,"MEAN_MOTION_DDOT":0},{"OBJECT_NAME":"STARLINK-30224","OBJECT_ID":"2023-102N","EPOCH":"2025-09-28T20:14:30.566112","MEAN_MOTION":15.02535327,"ECCENTRICITY":0.0001201,"INCLINATION":42.9996,"RA_OF_ASC_NODE":48.0284,"ARG_OF_PERICENTER":236.2874,"MEAN_ANOMALY":123.7854,"EPHEMERIS_TYPE":0,"CLASSIFICATION_TYPE":"U","NORAD_CAT_ID":57416,"ELEMENT_SET_NO":999,"REV_AT_EPOCH":12189,"BSTAR":0.00022516582,"MEAN_MOTION_DOT":2.839e-5,"MEAN_MOTION_DDOT":0},{"OBJECT_NAME":"STARLINK-30043","OBJECT_ID":"2023-102P","EPOCH":"2025-09-28T18:29:10.453632","MEAN_MOTION":15.02539489,"ECCENTRICITY":0.00010575,"INCLINATION":43.0016,"RA_OF_ASC_NODE":48.3352,"ARG_OF_PERICENTER":224.4328,"MEAN_ANOMALY":135.643,"EPHEMERIS_TYPE":0,"CLASSIFICATION_TYPE":"U","NORAD_CAT_ID":57417,"ELEMENT_SET_NO":999,"REV_AT_EPOCH":12188,"BSTAR":6.3835857e-5,"MEAN_MOTION_DOT":6.59e-6,"MEAN_MOTION_DDOT":0},{"OBJECT_NAME":"STARLINK-30221","OBJECT_ID":"2023-102Q","EPOCH":"2025-09-28T20:09:41.703264","MEAN_MOTION":15.02489464,"ECCENTRICITY":0.00019656,"INCLINATION":43.0047,"RA_OF_ASC_NODE":48.0033,"ARG_OF_PERICENTER":266.7462,"MEAN_ANOMALY":93.3156,"EPHEMERIS_TYPE":0,"CLASSIFICATION_TYPE":"U","NORAD_CAT_ID":57418,"ELEMENT_SET_NO":999,"REV_AT_EPOCH":12189,"BSTAR":0.0009004863,"MEAN_MOTION_DOT":0.00011966,"MEAN_MOTION_DDOT":0},{"OBJECT_NAME":"STARLINK-30189","OBJECT_ID":"2023-105A","EPOCH":"2025-09-28T20:57:17.882496","MEAN_MOTION":15.02548858,"ECCENTRICITY":0.00014018,"INCLINATION":43.0018,"RA_OF_ASC_NODE":61.39,"ARG_OF_PERICENTER":266.8095,"MEAN_ANOMALY":93.2587,"EPHEMERIS_TYPE":0,"CLASSIFICATION_TYPE":"U","NORAD_CAT_ID":57430,"ELEMENT_SET_NO":999,"REV_AT_EPOCH":12117,"BSTAR":0.00018174375,"MEAN_MOTION_DOT":2.253e-5,"MEAN_MOTION_DDOT":0},{"OBJECT_NAME":"STARLINK-30188","OBJECT_ID":"2023-105C","EPOCH":"2025-09-28T20:47:42.432576","MEAN_MOTION":15.02546334,"ECCENTRICITY":0.00011378,"INCLINATION":43.0031,"RA_OF_ASC_NODE":61.339,"ARG_OF_PERICENTER":261.1155,"MEAN_ANOMALY":98.9559,"EPHEMERIS_TYPE":0,"CLASSIFICATION_TYPE":"U","NORAD_CAT_ID":57432,"ELEMENT_SET_NO":999,"REV_AT_EPOCH":12118,"BSTAR":0.00012923387,"MEAN_MOTION_DOT":1.543e-5,"MEAN_MOTION_DDOT":0},{"OBJECT_NAME":"STARLINK-30105","OBJECT_ID":"2023-105D","EPOCH":"2025-09-28T21:52:35.945760","MEAN_MOTION":15.27571557,"ECCENTRICITY":0.00010717,"INCLINATION":43.001,"RA_OF_ASC_NODE":224.4679,"ARG_OF_PERICENTER":269.8131,"MEAN_ANOMALY":90.2598,"EPHEMERIS_TYPE":0,"CLASSIFICATION_TYPE":"U","NORAD_CAT_ID":57433,"ELEMENT_SET_NO":999,"REV_AT_EPOCH":12358,"BSTAR":-1.9559354e-5,"MEAN_MOTION_DOT":-8.0e-6,"MEAN_MOTION_DDOT":0},{"OBJECT_NAME":"STARLINK-30102","OBJECT_ID":"2023-105E","EPOCH":"2025-09-28T20:38:07.485504","MEAN_MOTION":15.02552232,"ECCENTRICITY":0.00011182,"INCLINATION":43.0038,"RA_OF_ASC_NODE":61.2887,"ARG_OF_PERICENTER":293.821,"MEAN_ANOMALY":66.2515,"EPHEMERIS_TYPE":0,"CLASSIFICATION_TYPE":"U","NORAD_CAT_ID":57434,"ELEMENT_SET_NO":999,"REV_AT_EPOCH":12116,"BSTAR":0.0001647038,"MEAN_MOTION_DOT":2.023e-5,"MEAN_MOTION_DDOT":0}]
