STARLINK-30207          
1 57407U 23102D   25271.71070411  .00003445  00000+0  26992-3 0  9995
2 57407  43.0033  35.8337 0001179 249.6835 110.3881 15.02547051122032
STARLINK-30205          
1 57408U 23102E   25271.86672069  .00000181  00000+0  28544-4 0  9999
2 57408  43.0107  48.2046 0004286 271.9599  88.0753 15.02525824121893
STARLINK-30222          
1 57409U 23102F   25271.85672562  .00004109  00000+0  31912-3 0  9993
2 57409  43.0031  48.1325 0001495 279.9389  80.1285 15.02527453121896
STARLINK-30172          
1 57410U 23102G   25271.86337098  .00000887  00000+0  80679-4 0  9992
2 57410  43.0026  48.1715 0001601 304.0349  56.0341 15.02546334121894
STARLINK-30214          
1 57411U 23102H   25271.83341194  .00001442  00000+0  12180-3 0  9991
2 57411  43.0043  47.9656 0001811 294.3975  65.6678 15.02537321121844
STARLINK-30182          
1 57412U 23102J   25271.46118107  .00001122  00000+0  98126-4 0  9997
2 57412  43.0048  50.3217 0001987 276.6680  83.3936 15.02538886121831
STARLINK-30191          
1 57413U 23102K   25272.28936735  .00007072  00000+0  26640-3 0  9995
2 57413  43.0100  18.1498 0002198 277.5887  82.4715 15.27564511122284
STARLINK-30193          
1 57414U 23102L   25271.38471686  .00003450  00000+0  27030-3 0  9995
2 57414  43.0005  50.5878 0000926 204.4632 155.6166 15.02538432121823
STARLINK-30208          
1 57415U 23102M   25271.78027438 -.00001431  00000+0 -90919-4 0  9998
2 57415  43.0007  48.4106 0001131 203.1051 156.9740 15.02521693121830
STARLINK-30224          
1 57416U 23102N   25271.84340933  .00002839  00000+0  22517-3 0  9993
2 57416  42.9996  48.0284 0001201 236.2874 123.7854 15.02535327121890
STARLINK-30043          
1 57417U 23102P   25271.77025988  .00000659  00000+0  63836-4 0  9994
2 57417  43.0016  48.3352 0001057 224.4328 135.6430 15.02539489121881
STARLINK-30221          
1 57418U 23102Q   25271.84006601  .00011966  00000+0  90049-3 0  9992
2 57418  43.0047  48.0033 0001965 266.7462  93.3156 15.02489464121898
STARLINK-30189          
1 57430U 23105A   25271.87312364  .00002253  00000+0  18174-3 0  9996
2 57430  43.0018  61.3900 0001401 266.8095  93.2587 15.02548858121170
STARLINK-30188          
1 57432U 23105C   25271.86646334  .00001543  00000+0  12923-3 0  9991
2 57432  43.0031  61.3390 0001137 261.1155  98.9559 15.02546334121180
STARLINK-30105          
1 57433U 23105D   25271.91152715 -.00000800  00000+0 -19559-4 0  9993
2 57433  43.0010 224.4679 0001071 269.8131  90.2598 15.27571557123582
STARLINK-30102          
1 57434U 23105E   25271.85980886  .00002023  00000+0  16470-3 0  9990
2 57434  43.0038  61.2887 0001118 293.8210  66.2515 15.02552232121164
